STARLINK-36437          
1 67465C 26008W   26085.54284722  .00056310  00000+0  20403-2 0   850
2 67465  43.0016 109.8031 0000830 276.8913  37.7810 15.27538464    15
STARLINK-36520          
1 67466C 26008X   26085.48312500  .00031791  00000+0  11520-2 0   856
2 67466  43.0036 110.7288 0001348 271.9898 193.3004 15.27547206    14
STARLINK-36425          
1 67467C 26008Y   26085.55812500  .00060320  00000+0  21856-2 0   853
2 67467  43.0039 110.2284 0001305 274.8814 278.7027 15.27536924    10
STARLINK-36414          
1 67468C 26008Z   26085.53798611  .00054868  00000+0  19880-2 0   852
2 67468  43.0013 109.7729 0001470 284.6629  24.4698 15.27539844    10
STARLINK-36441          
1 67469C 26008AA  26085.56298611  .00024060  00000+0  87212-3 0   857
2 67469  43.0034 110.2348 0001236 270.5987 288.6173 15.27541766    17
STARLINK-36454          
1 67470C 26008AB  26085.61993056  .00022461  00000+0  81383-3 0   856
2 67470  43.0013 109.4105 0001573 278.1494  79.7010 15.27554658    11
STARLINK-36334          
1 67471C 26008AC  26085.52826389  .00047978  00000+0  17385-2 0   851
2 67471  43.0027 110.5117 0001584 268.4322  64.1693 15.27539982    15
STARLINK-36269          
1 67472C 26008AD  26085.50673611  .00047992  00000+0  17390-2 0   850
2 67472  43.0039 110.4474 0001588 274.5425  17.3545 15.27540074    10
STARLINK-36408          
1 67473C 26008AE  26085.60743056  .00019895  00000+0  72140-3 0   859
2 67473  43.0020 109.7746 0001398 291.7509 237.1118 15.27532735    10
STARLINK-36551          
1 67493C 26012A   26085.51854167 -.00050202  00000+0 -18173-2 0   856
2 67493  42.9998 219.7393 0001412 259.1826  17.0264 15.27621433    12
STARLINK-36396          
1 67494C 26012B   26085.49840278 -.00046162  00000+0 -16708-2 0   854
2 67494  43.0010 219.6122 0001379 264.4555   6.9563 15.27624168    16
STARLINK-36550          
1 67495C 26012C   26085.61645833 -.00072423  00000+0 -26234-2 0   853
2 67495  43.0003 219.0875 0001413 277.7207 220.0168 15.27611393    14
STARLINK-36534          
1 67496C 26012D   26085.58243056 -.00096675  00000+0 -35012-2 0   850
2 67496  43.0008 219.1869 0001359 268.3044  77.4738 15.27630170    19
STARLINK-36555          
1 67497C 26012E   26085.51854167 -.00059754  00000+0 -21640-2 0   854
2 67497  43.0006 219.5822 0001431 273.5372  66.3254 15.27612689    19
STARLINK-36081          
1 67498C 26012F   26085.60812500 -.00090758  00000+0 -32876-2 0   852
2 67498  43.0009 218.9973 0001338 273.9728 234.4792 15.27619708    12
STARLINK-36558          
1 67499C 26012G   26085.60673611 -.00111750  00000+0 -40475-2 0   851
2 67499  43.0011 218.9545 0001308 273.0718 248.9513 15.27635247    15
STARLINK-36557          
1 67500C 26012H   26085.49006944 -.00036134  00000+0 -13077-2 0   850
2 67500  43.0016 219.5487 0001606 265.6777 355.2525 15.27622377    13
STARLINK-36433          
1 67501C 26012J   26085.53034722 -.00081995  00000+0 -29677-2 0   859
2 67501  43.0018 219.2698 0001374 270.5563 233.3593 15.27642520    10
STARLINK-36554          
1 67502C 26012K   26085.50743056 -.00042196  00000+0 -15277-2 0   855
2 67502  43.0017 219.3212 0001636 278.0810 135.0183 15.27611842    18
STARLINK-36552          
1 67503C 26012L   26085.57548611 -.00114270  00000+0 -41366-2 0   854
2 67503  43.0021 218.8775 0001171 283.5682 165.4732 15.27653644    17
STARLINK-36512          
1 67504C 26012M   26085.50395833 -.00091082  00000+0 -32968-2 0   857
2 67504  43.0030 219.1844 0001353 270.0496 187.6273 15.27646058    12
STARLINK-36545          
1 67505C 26012N   26085.54145833 -.00112800  00000+0 -40843-2 0   858
2 67505  43.0029 218.9207 0001374 270.4533  54.9307 15.27644140    14
STARLINK-36553          
1 67506C 26012P   26085.52687500 -.00072966  00000+0 -26424-2 0   856
2 67506  43.0020 218.9495 0001575 265.8832   0.4188 15.27620171    19
STARLINK-36521          
1 67507C 26012Q   26085.61020833 -.00115890  00000+0 -41972-2 0   856
2 67507  43.0014 218.4441 0000745 263.7696 115.4893 15.27638771    17
STARLINK-36526          
1 67508C 26012R   26085.54979167 -.00100160  00000+0 -36269-2 0   859
2 67508  43.0009 218.7321 0001394 268.2095 159.6616 15.27637238    16
STARLINK-36541          
1 67509C 26012S   26085.57409722 -.00099826  00000+0 -36149-2 0   851
2 67509  42.9998 219.4191 0001416 268.8293 320.3149 15.27635208    19
STARLINK-36549          
1 67510C 26012T   26085.60951389 -.00117990  00000+0 -42730-2 0   854
2 67510  43.0001 218.3986 0001385 268.8568 120.7693 15.27642140    17
STARLINK-36540          
1 67511C 26012U   26085.53312500 -.00068181  00000+0 -24692-2 0   857
2 67511  43.0003 219.5964 0001372 275.2806 109.4890 15.27615955    19
STARLINK-36538          
1 67512C 26012V   26085.60187500 -.00116440  00000+0 -42177-2 0   856
2 67512  43.0005 219.1209 0001268 279.0135 152.6112 15.27635748    10
STARLINK-36531          
1 67513C 26012W   26085.51090278 -.00032651  00000+0 -11824-2 0   858
2 67513  43.0016 219.4956 0001496 270.8698  76.4714 15.27600436    18
STARLINK-36530          
1 67514C 26012X   26085.48520833 -.00006618  00000+0 -23973-3 0   853
2 67514  43.0014 219.5913 0001740 269.7175 317.3641 15.27576342    14
STARLINK-36543          
1 67515C 26012Y   26085.51923611 -.00076273  00000+0 -27606-2 0   859
2 67515  43.0017 219.3504 0001686 268.7315 166.9344 15.27639240    11
STARLINK-36537          
1 67516C 26012Z   26085.51854167 -.00091928  00000+0 -33256-2 0   851
2 67516  43.0016 219.2129 0001571 272.7273 215.6662 15.27664007    18
STARLINK-36544          
1 67517C 26012AA  26085.51229167 -.00073449  00000+0 -26583-2 0   851
2 67517  43.0018 219.3324 0001645 267.9761 150.6830 15.27639760    12
STARLINK-36412          
1 67518C 26012AB  26085.52409722 -.00068153  00000+0 -24666-2 0   856
2 67518  43.0030 219.0303 0001320 264.7453 317.9683 15.27637776    13
STARLINK-36415          
1 67519C 26012AC  26085.50534722 -.00037274  00000+0 -13493-2 0   850
2 67519  43.0012 219.0789 0001331 257.1608 243.5627 15.27616579    12
STARLINK-36547          
1 67520C 26012AD  26085.59145833 -.00140230  00000+0 -50777-2 0   855
2 67520  43.0027 218.7002 0001407 275.1984 297.1696 15.27657858    11
STARLINK-36444          
1 67521C 26012AE  26085.56506944 -.00109930  00000+0 -39807-2 0   850
2 67521  43.0024 218.9029 0001434 271.4863 134.3703 15.27641614    19
STARLINK-36587          
1 67532C 26014A   26085.52687500  .00054566  00000+0  36656-3 0   850
2 67532  97.2852 331.3473 0001581  69.6684  72.8321 15.75163466    14
STARLINK-36417          
1 67533C 26014B   26085.55256944  .00085747  00000+0  57609-3 0   854
2 67533  97.2853 331.2283 0001544 104.4345 205.7157 15.75145169    19
STARLINK-36576          
1 67534C 26014C   26085.55534722  .00082203  00000+0  55221-3 0   850
2 67534  97.2851 331.3188 0001536 105.2661  64.6053 15.75150090    10
STARLINK-36574          
1 67535C 26014D   26085.49215278  .00094113  00000+0  63245-3 0   854
2 67535  97.2848 331.2815 0001397 102.8657 134.8832 15.75136042    12
STARLINK-36572          
1 67536C 26014E   26085.56576389  .00062148  00000+0  41755-3 0   851
2 67536  97.2857 331.2756 0001578 109.0017 353.9128 15.75156690    10
STARLINK-36561          
1 67537C 26014F   26085.57062500  .00072790  00000+0  48907-3 0   858
2 67537  97.2855 331.2656 0001505  69.3116  27.1584 15.75150627    16
STARLINK-36397          
1 67538C 26014G   26085.57687500  .00060978  00000+0  40970-3 0   859
2 67538  97.2854 331.2629 0001083  96.3779  13.5116 15.75157924    19
STARLINK-36573          
1 67539C 26014H   26085.54145833  .00101060  00000+0  67877-3 0   858
2 67539  97.2850 331.3231 0001502  76.3578  58.7919 15.75144549    18
STARLINK-36585          
1 67540C 26014J   26085.49631944  .00046850  00000+0  31482-3 0   855
2 67540  97.2858 331.1972 0001763  68.4218 350.9624 15.75159834    13
STARLINK-36579          
1 67541C 26014K   26085.53243056  .00059813  00000+0  40197-3 0   850
2 67541  97.2861 331.2548 0001490  79.4358 228.5882 15.75152267    11
STARLINK-35934          
1 67542C 26014L   26085.57409722  .00050195  00000+0  33714-3 0   850
2 67542  97.2853 331.3820 0001359  83.0951 293.0083 15.75169939    15
STARLINK-36581          
1 67543C 26014M   26085.55881944  .00108600  00000+0  72954-3 0   853
2 67543  97.2850 331.3466 0001486  86.9427 158.5961 15.75137254    15
STARLINK-36565          
1 67544C 26014N   26085.53659722  .00073355  00000+0  49289-3 0   852
2 67544  97.2851 331.3085 0001271  69.3606  16.2566 15.75149627    18
STARLINK-36583          
1 67545C 26014P   26085.59493056  .00085351  00000+0  57313-3 0   851
2 67545  97.2860 331.3108 0001712  68.3071 211.8897 15.75157140    19
STARLINK-36580          
1 67546C 26014Q   26085.55604167  .00081365  00000+0  54652-3 0   859
2 67546  97.2854 331.3140 0001604  71.9691  89.8319 15.75152870    14
STARLINK-36584          
1 67547C 26014R   26085.58937500  .00068597  00000+0  46069-3 0   858
2 67547  97.2853 331.3921 0001610  71.0777  19.6076 15.75162840    13
STARLINK-36586          
1 67548C 26014S   26085.58798611  .00018223  00000+0  12239-3 0   850
2 67548  97.2856 331.4446 0001615  79.5985 127.1999 15.75187551    14
STARLINK-36564          
1 67549C 26014T   26085.61298611  .00090992  00000+0  61100-3 0   854
2 67549  97.2859 331.3542 0001446  88.1037 350.3982 15.75155437    10
STARLINK-36563          
1 67550C 26014U   26085.55256944  .00079882  00000+0  53662-3 0   851
2 67550  97.2857 331.3008 0001413  74.9547  45.1761 15.75151560    17
STARLINK-36566          
1 67551C 26014V   26085.50048611 -.00029192  00000+0 -19560-3 0   857
2 67551  97.2855 331.2511 0001529  93.0362 103.8214 15.75265484    15
STARLINK-36567          
1 67552C 26014W   26085.56715278  .00067369  00000+0  45254-3 0   859
2 67552  97.2864 331.2997 0001244 102.3293  64.4469 15.75159096    10
